[{"OBJECT_NAME":"STARLINK-34068","OBJECT_ID":"2025-095AA","EPOCH":"2026-03-09T07:45:51.268320","MEAN_MOTION":15.27579423,"ECCENTRICITY":9.188e-5,"INCLINATION":42.9971,"RA_OF_ASC_NODE":178.1184,"ARG_OF_PERICENTER":249.4112,"MEAN_ANOMALY":110.6641,"EPHEMERIS_TYPE":0,"CLASSIFICATION_TYPE":"U","NORAD_CAT_ID":63914,"ELEMENT_SET_NO":999,"REV_AT_EPOCH":4772,"BSTAR":0.0011688208,"MEAN_MOTION_DOT":0.00032041,"MEAN_MOTION_DDOT":0},{"OBJECT_NAME":"DELTA 1 R\/B(1)","OBJECT_ID":"1977-118B","EPOCH":"2026-03-09T06:43:16.851360","MEAN_MOTION":13.47350406,"ECCENTRICITY":0.0814229,"INCLINATION":28.6551,"RA_OF_ASC_NODE":189.0759,"ARG_OF_PERICENTER":117.268,"MEAN_ANOMALY":251.3149,"EPHEMERIS_TYPE":0,"CLASSIFICATION_TYPE":"U","NORAD_CAT_ID":10517,"ELEMENT_SET_NO":999,"REV_AT_EPOCH":33790,"BSTAR":0.00036454259,"MEAN_MOTION_DOT":2.074e-5,"MEAN_MOTION_DDOT":0}]
